{"type": "FeatureCollection", "features": [{"type": "Feature", "properties": {"norad_id": 26766, "name": "INTELSAT 10 (IS-10)", "group": "intelsat", "lat": -4.46891346315413, "lon": 29.999820460991877, "alt_km": 36136.34155718293, "timestamp": "2025-12-02T08:59:32.387007+00:00", "meta": {"OBJECT_NAME": "INTELSAT 10 (IS-10)", "OBJECT_ID": "2001-019A", "EPOCH": "2025-12-01T11:39:24.752160", "MEAN_MOTION": 0.99077519, "ECCENTRICITY": 0.00076044, "INCLINATION": 8.6009, "RA_OF_ASC_NODE": 61.2665, "ARG_OF_PERICENTER": 217.709, "MEAN_ANOMALY": 153.5892, "EPHEMERIS_TYPE": 0, "CLASSIFICATION_TYPE": "U", "NORAD_CAT_ID": 26766, "ELEMENT_SET_NO": 999, "REV_AT_EPOCH": 4362, "BSTAR": 0, "MEAN_MOTION_DOT": -9.5e-07, "MEAN_MOTION_DDOT": 0}, "tle": {"line1": "1 26766U 01019A   25335.48570315 -.00000095  00000+0  00000+0 0  9992", "line2": "2 26766   8.6009  61.2665 0007604 217.7090 153.5892  0.99077519 43626"}}, "geometry": {"type": "Point", "coordinates": [29.999820460991877, -4.46891346315413]}}, {"type": "Feature", "properties": {"norad_id": 26900, "name": "INTELSAT 902 (IS-902)", "group": "intelsat", "lat": 5.560228797194189, "lon": 156.13444319385934, "alt_km": 35786.83702200007, "timestamp": "2025-12-02T08:59:32.387031+00:00", "meta": {"OBJECT_NAME": "INTELSAT 902 (IS-902)", "OBJECT_ID": "2001-039A", "EPOCH": "2025-12-01T16:59:59.311104", "MEAN_MOTION": 1.00270327, "ECCENTRICITY": 0.000431, "INCLINATION": 5.6187, "RA_OF_ASC_NODE": 74.2002, "ARG_OF_PERICENTER": 175.119, "MEAN_ANOMALY": 26.3816, "EPHEMERIS_TYPE": 0, "CLASSIFICATION_TYPE": "U", "NORAD_CAT_ID": 26900, "ELEMENT_SET_NO": 999, "REV_AT_EPOCH": 8871, "BSTAR": 0, "MEAN_MOTION_DOT": -2.63e-06, "MEAN_MOTION_DDOT": 0}, "tle": {"line1": "1 26900U 01039A   25335.70832536 -.00000263  00000+0  00000+0 0  9992", "line2": "2 26900   5.6187  74.2002 0004310 175.1190  26.3816  1.00270327 88715"}}, "geometry": {"type": "Point", "coordinates": [156.13444319385934, 5.560228797194189]}}, {"type": "Feature", "properties": {"norad_id": 27380, "name": "INTELSAT 904 (IS-904)", "group": "intelsat", "lat": 6.242101297669322, "lon": 174.92285456035268, "alt_km": 35785.948830170724, "timestamp": "2025-12-02T08:59:32.387047+00:00", "meta": {"OBJECT_NAME": "INTELSAT 904 (IS-904)", "OBJECT_ID": "2002-007A", "EPOCH": "2025-12-01T03:23:28.935168", "MEAN_MOTION": 1.00269987, "ECCENTRICITY": 0.0001425, "INCLINATION": 6.4235, "RA_OF_ASC_NODE": 71.564, "ARG_OF_PERICENTER": 194.1406, "MEAN_ANOMALY": 183.9501, "EPHEMERIS_TYPE": 0, "CLASSIFICATION_TYPE": "U", "NORAD_CAT_ID": 27380, "ELEMENT_SET_NO": 999, "REV_AT_EPOCH": 4978, "BSTAR": 0, "MEAN_MOTION_DOT": -2.05e-06, "MEAN_MOTION_DDOT": 0}, "tle": {"line1": "1 27380U 02007A   25335.14130712 -.00000205  00000+0  00000+0 0  9992", "line2": "2 27380   6.4235  71.5640 0001425 194.1406 183.9501  1.00269987 49789"}}, "geometry": {"type": "Point", "coordinates": [174.92285456035268, 6.242101297669322]}}, {"type": "Feature", "properties": {"norad_id": 27426, "name": "DIRECTV 5 (TEMPO 1)", "group": "intelsat", "lat": 1.3992889372656259, "lon": 96.15921631089662, "alt_km": 35801.27088319897, "timestamp": "2025-12-02T08:59:32.387060+00:00", "meta": {"OBJECT_NAME": "DIRECTV 5 (TEMPO 1)", "OBJECT_ID": "2002-023A", "EPOCH": "2025-12-01T22:57:27.363744", "MEAN_MOTION": 1.00271136, "ECCENTRICITY": 0.0003662, "INCLINATION": 4.3723, "RA_OF_ASC_NODE": 77.779, "ARG_OF_PERICENTER": 187.0649, "MEAN_ANOMALY": 40.4656, "EPHEMERIS_TYPE": 0, "CLASSIFICATION_TYPE": "U", "NORAD_CAT_ID": 27426, "ELEMENT_SET_NO": 999, "REV_AT_EPOCH": 8614, "BSTAR": 0, "MEAN_MOTION_DOT": -3.7e-07, "MEAN_MOTION_DDOT": 0}, "tle": {"line1": "1 27426U 02023A   25335.95656671 -.00000037  00000+0  00000+0 0  9990", "line2": "2 27426   4.3723  77.7790 0003662 187.0649  40.4656  1.00271136 86146"}}, "geometry": {"type": "Point", "coordinates": [96.15921631089662, 1.3992889372656259]}}, {"type": "Feature", "properties": {"norad_id": 27438, "name": "INTELSAT 905 (IS-905)", "group": "intelsat", "lat": -0.3053056112062007, "lon": 69.17166996323411, "alt_km": 35798.39099071939, "timestamp": "2025-12-02T08:59:32.387073+00:00", "meta": {"OBJECT_NAME": "INTELSAT 905 (IS-905)", "OBJECT_ID": "2002-027A", "EPOCH": "2025-12-01T11:26:53.712384", "MEAN_MOTION": 1.00272635, "ECCENTRICITY": 0.00030034, "INCLINATION": 6.255, "RA_OF_ASC_NODE": 72.1839, "ARG_OF_PERICENTER": 185.4215, "MEAN_ANOMALY": 207.5171, "EPHEMERIS_TYPE": 0, "CLASSIFICATION_TYPE": "U", "NORAD_CAT_ID": 27438, "ELEMENT_SET_NO": 999, "REV_AT_EPOCH": 4938, "BSTAR": 0, "MEAN_MOTION_DOT": 1.14e-06, "MEAN_MOTION_DDOT": 0}, "tle": {"line1": "1 27438U 02027A   25335.47701056  .00000114  00000+0  00000+0 0  9997", "line2": "2 27438   6.2550  72.1839 0003003 185.4215 207.5171  1.00272635 49389"}}, "geometry": {"type": "Point", "coordinates": [69.17166996323411, -0.3053056112062007]}}, {"type": "Feature", "properties": {"norad_id": 27445, "name": "GALAXY 3C (G-3C)", "group": "intelsat", "lat": 1.6707007895693897, "lon": 111.43096258710307, "alt_km": 35783.99208254876, "timestamp": "2025-12-02T08:59:32.387085+00:00", "meta": {"OBJECT_NAME": "GALAXY 3C (G-3C)", "OBJECT_ID": "2002-030A", "EPOCH": "2025-12-02T04:50:16.810944", "MEAN_MOTION": 1.00270439, "ECCENTRICITY": 0.0001324, "INCLINATION": 3.2359, "RA_OF_ASC_NODE": 80.6133, "ARG_OF_PERICENTER": 96.6523, "MEAN_ANOMALY": 231.7594, "EPHEMERIS_TYPE": 0, "CLASSIFICATION_TYPE": "U", "NORAD_CAT_ID": 27445, "ELEMENT_SET_NO": 999, "REV_AT_EPOCH": 4451, "BSTAR": 0, "MEAN_MOTION_DOT": -1.32e-06, "MEAN_MOTION_DDOT": 0}, "tle": {"line1": "1 27445U 02030A   25336.20158346 -.00000132  00000+0  00000+0 0  9990", "line2": "2 27445   3.2359  80.6133 0001324  96.6523 231.7594  1.00270439 44519"}}, "geometry": {"type": "Point", "coordinates": [111.43096258710307, 1.6707007895693897]}}, {"type": "Feature", "properties": {"norad_id": 27513, "name": "INTELSAT 906 (IS-906)", "group": "intelsat", "lat": -1.4017082028993377, "lon": -89.57982788885187, "alt_km": 35760.178965258456, "timestamp": "2025-12-02T08:59:32.387097+00:00", "meta": {"OBJECT_NAME": "INTELSAT 906 (IS-906)", "OBJECT_ID": "2002-041A", "EPOCH": "2025-12-01T19:15:20.505888", "MEAN_MOTION": 1.00272855, "ECCENTRICITY": 0.0006106, "INCLINATION": 5.3014, "RA_OF_ASC_NODE": 75.3609, "ARG_OF_PERICENTER": 190.8107, "MEAN_ANOMALY": 157.7085, "EPHEMERIS_TYPE": 0, "CLASSIFICATION_TYPE": "U", "NORAD_CAT_ID": 27513, "ELEMENT_SET_NO": 999, "REV_AT_EPOCH": 8504, "BSTAR": 0, "MEAN_MOTION_DOT": 3.3e-07, "MEAN_MOTION_DDOT": 0}, "tle": {"line1": "1 27513U 02041A   25335.80232067  .00000033  00000+0  00000+0 0  9995", "line2": "2 27513   5.3014  75.3609 0006106 190.8107 157.7085  1.00272855 85042"}}, "geometry": {"type": "Point", "coordinates": [-89.57982788885187, -1.4017082028993377]}}, {"type": "Feature", "properties": {"norad_id": 27954, "name": "GALAXY 13 (HORIZONS-1)", "group": "intelsat", "lat": -0.4338997011954459, "lon": 56.334962142111394, "alt_km": 35794.8009031021, "timestamp": "2025-12-02T08:59:32.387109+00:00", "meta": {"OBJECT_NAME": "GALAXY 13 (HORIZONS-1)", "OBJECT_ID": "2003-044A", "EPOCH": "2025-12-02T02:47:56.126112", "MEAN_MOTION": 1.00271949, "ECCENTRICITY": 0.0002087, "INCLINATION": 0.9081, "RA_OF_ASC_NODE": 86.5991, "ARG_OF_PERICENTER": 158.6451, "MEAN_ANOMALY": 77.9559, "EPHEMERIS_TYPE": 0, "CLASSIFICATION_TYPE": "U", "NORAD_CAT_ID": 27954, "ELEMENT_SET_NO": 999, "REV_AT_EPOCH": 4459, "BSTAR": 0, "MEAN_MOTION_DOT": 1.54e-06, "MEAN_MOTION_DDOT": 0}, "tle": {"line1": "1 27954U 03044A   25336.11662183  .00000154  00000+0  00000+0 0  9993", "line2": "2 27954   0.9081  86.5991 0002087 158.6451  77.9559  1.00271949 44599"}}, "geometry": {"type": "Point", "coordinates": [56.334962142111394, -0.4338997011954459]}}, {"type": "Feature", "properties": {"norad_id": 28358, "name": "INTELSAT 10-02", "group": "intelsat", "lat": -0.0037199301484779172, "lon": -154.6721776606422, "alt_km": 35784.7510921499, "timestamp": "2025-12-02T08:59:32.387121+00:00", "meta": {"OBJECT_NAME": "INTELSAT 10-02", "OBJECT_ID": "2004-022A", "EPOCH": "2025-12-01T17:14:05.460000", "MEAN_MOTION": 1.00270385, "ECCENTRICITY": 0.0001102, "INCLINATION": 0.04, "RA_OF_ASC_NODE": 91.6394, "ARG_OF_PERICENTER": 182.5327, "MEAN_ANOMALY": 54.1897, "EPHEMERIS_TYPE": 0, "CLASSIFICATION_TYPE": "U", "NORAD_CAT_ID": 28358, "ELEMENT_SET_NO": 999, "REV_AT_EPOCH": 7857, "BSTAR": 0, "MEAN_MOTION_DOT": 1e-07, "MEAN_MOTION_DDOT": 0}, "tle": {"line1": "1 28358U 04022A   25335.71811875  .00000010  00000+0  00000+0 0  9999", "line2": "2 28358   0.0400  91.6394 0001102 182.5327  54.1897  1.00270385 78573"}}, "geometry": {"type": "Point", "coordinates": [-154.6721776606422, -0.0037199301484779172]}}, {"type": "Feature", "properties": {"norad_id": 28626, "name": "XM-3 (RHYTHM)", "group": "intelsat", "lat": -0.1135057310604978, "lon": 9.817980432375018, "alt_km": 36155.929108845885, "timestamp": "2025-12-02T08:59:32.387133+00:00", "meta": {"OBJECT_NAME": "XM-3 (RHYTHM)", "OBJECT_ID": "2005-008A", "EPOCH": "2025-12-01T16:19:10.717824", "MEAN_MOTION": 0.98955107, "ECCENTRICITY": 8.38e-05, "INCLINATION": 0.1433, "RA_OF_ASC_NODE": 80.6256, "ARG_OF_PERICENTER": 270.4663, "MEAN_ANOMALY": 131.2697, "EPHEMERIS_TYPE": 0, "CLASSIFICATION_TYPE": "U", "NORAD_CAT_ID": 28626, "ELEMENT_SET_NO": 999, "REV_AT_EPOCH": 4064, "BSTAR": 0, "MEAN_MOTION_DOT": -2.1e-06, "MEAN_MOTION_DDOT": 0}, "tle": {"line1": "1 28626U 05008A   25335.67998516 -.00000210  00000+0  00000+0 0  9998", "line2": "2 28626   0.1433  80.6256 0000838 270.4663 131.2697  0.98955107 40648"}}, "geometry": {"type": "Point", "coordinates": [9.817980432375018, -0.1135057310604978]}}]}